{
    "links": {
        "self": "http://www.neowsapp.com/rest/v1/neo/3617711?api_key=iIulBulltgU6a56xZRHN4H3l9WmuAYTsLGpBGhQ2"
    },
    "id": "3617711",
    "neo_reference_id": "3617711",
    "name": "(2012 VQ76)",
    "designation": "2012 VQ76",
    "nasa_jpl_url": "http://ssd.jpl.nasa.gov/sbdb.cgi?sstr=3617711",
    "absolute_magnitude_h": 23.0,
    "estimated_diameter": {
        "kilometers": {
            "estimated_diameter_min": 0.0667659413,
            "estimated_diameter_max": 0.1492931834
        },
        "meters": {
            "estimated_diameter_min": 66.7659413495,
            "estimated_diameter_max": 149.2931834393
        },
        "miles": {
            "estimated_diameter_min": 0.0414864197,
            "estimated_diameter_max": 0.0927664547
        },
        "feet": {
            "estimated_diameter_min": 219.0483710172,
            "estimated_diameter_max": 489.807047955
        }
    },
    "is_potentially_hazardous_asteroid": false,
    "close_approach_data": [
        {
            "close_approach_date": "2012-11-15",
            "close_approach_date_full": "2012-Nov-15 18:28",
            "epoch_date_close_approach": 1353004080000,
            "relative_velocity": {
                "kilometers_per_second": "12.3339480303",
                "kilometers_per_hour": "44402.212909125",
                "miles_per_hour": "27589.808349006"
            },
            "miss_distance": {
                "astronomical": "0.234287092",
                "lunar": "91.137678788",
                "kilometers": "35048849.93169404",
                "miles": "21778345.472256152"
            },
            "orbiting_body": "Earth"
        }
    ],
    "orbital_data": {
        "orbit_id": "8",
        "orbit_determination_date": "2017-04-06 08:48:01",
        "first_observation_date": "2012-11-13",
        "last_observation_date": "2012-12-14",
        "data_arc_in_days": 31,
        "observations_used": 30,
        "orbit_uncertainty": "7",
        "minimum_orbit_intersection": ".252695",
        "jupiter_tisserand_invariant": "3.102",
        "epoch_osculation": "2459000.5",
        "eccentricity": ".5281605378475808",
        "semi_major_axis": "2.630193377881563",
        "inclination": "21.40125455388541",
        "ascending_node_longitude": "54.59091371466805",
        "orbital_period": "1558.044820265299",
        "perihelion_distance": "1.241029028776492",
        "perihelion_argument": "358.3147430112177",
        "aphelion_distance": "4.019357726986635",
        "perihelion_time": "2459352.163544833482",
        "mean_anomaly": "278.7450357695765",
        "mean_motion": ".2310588214905784",
        "equinox": "J2000",
        "orbit_class": {
            "orbit_class_type": "AMO",
            "orbit_class_description": "Near-Earth asteroid orbits similar to that of 1221 Amor",
            "orbit_class_range": "1.017 AU < q (perihelion) < 1.3 AU"
        }
    },
    "is_sentry_object": false
}